{
  "norad_id": 68443,
  "name": "TRANSPORTER-16 OBJECT AD",
  "history": [
    {
      "epoch": "2026-04-14T01:53:40.127424Z",
      "apogee_km": 516.8682502832553,
      "perigee_km": 512.7352442104057,
      "latitude_deg": 3.226542423585189e-05,
      "longitude_deg": -167.1890188572423,
      "height_km": 516.5553164494984,
      "semi_major_axis_km": 6892.93874724683,
      "eccentricity": 0.0002998,
      "inclination_deg": 97.4496,
      "raan_deg": 63.4887,
      "arg_perigee_deg": 310.2138,
      "mean_anomaly_deg": 49.8833,
      "mean_motion_rev_day": 15.1703686
    }
  ]
}