{"fetched_at":"2026-04-16T06:04:01Z","count":5425,"tles":[{"name":"TRANSPORTER-16 OBJECT AD","line1":"1 68443U 26067AD  26104.07893666  .00003226  00000+0  16647-3 0  9993","line2":"2 68443  97.4496  63.4887 0002998 310.2138  49.8833 15.17036860  2215","category":"Other"}]}